start=new Date('2023-01-29T00:00:00.000Z').valueOf();
sats=[{"RCS_SIZE":"LARGE","PERIOD":"95.592","SEMIMAJOR_AXIS":"6925.353","TIME_SYSTEM":"UTC","APOAPSIS":"548.145","TLE_LINE1":"1 44957U 20001AV  23028.94079762  .00000743  00000-0  68797-4 0  9996","MEAN_MOTION_DDOT":"0.0000000000000","INCLINATION":"53.0557","OBJECT_ID":"2020-001AV","CLASSIFICATION_TYPE":"U","LAUNCH_DATE":"2020-01-07","RA_OF_ASC_NODE":"5.1730","GP_ID":"223908970","ARG_OF_PERICENTER":"94.0562","MEAN_ANOMALY":"266.0580","MEAN_ELEMENT_THEORY":"SGP4","PERIAPSIS":"546.290","REF_FRAME":"TEME","NORAD_CAT_ID":"44957","MEAN_MOTION":"15.06398707","DECAY_DATE":null,"COUNTRY_CODE":"US","ELEMENT_SET_NO":"999","BSTAR":"0.00006879700000","MEAN_MOTION_DOT":"0.00000743","SITE":"AFETR","ECCENTRICITY":"0.00013390","EPHEMERIS_TYPE":"0","FILE":"3764201","OBJECT_NAME":"STARLINK-1074","CENTER_NAME":"EARTH","TLE_LINE2":"2 44957  53.0557   5.1730 0001339  94.0562 266.0580 15.06398707169227","OBJECT_TYPE":"PAYLOAD","REV_AT_EPOCH":"16922","EPOCH":"2023-01-28T22:34:44.914368"},{"SEMIMAJOR_AXIS":"6925.345","TIME_SYSTEM":"UTC","RCS_SIZE":"LARGE","PERIOD":"95.592","OBJECT_ID":"2020-001AX","CLASSIFICATION_TYPE":"U","INCLINATION":"53.0566","MEAN_MOTION_DDOT":"0.0000000000000","APOAPSIS":"548.305","TLE_LINE1":"1 44959U 20001AX  23028.35936177  .00000801  00000-0  72670-4 0  9995","RA_OF_ASC_NODE":"7.8031","GP_ID":"223876675","LAUNCH_DATE":"2020-01-07","REF_FRAME":"TEME","PERIAPSIS":"546.115","NORAD_CAT_ID":"44959","MEAN_ELEMENT_THEORY":"SGP4","MEAN_ANOMALY":"261.1226","ARG_OF_PERICENTER":"98.9942","BSTAR":"0.00007267000000","COUNTRY_CODE":"US","ELEMENT_SET_NO":"999","MEAN_MOTION":"15.06401082","DECAY_DATE":null,"FILE":"3763924","EPHEMERIS_TYPE":"0","ECCENTRICITY":"0.00015810","MEAN_MOTION_DOT":"0.00000801","SITE":"AFETR","EPOCH":"2023-01-28T08:37:28.856928","OBJECT_TYPE":"PAYLOAD","REV_AT_EPOCH":"16913","CENTER_NAME":"EARTH","TLE_LINE2":"2 44959  53.0566   7.8031 0001581  98.9942 261.1226 15.06401082169130","OBJECT_NAME":"STARLINK-1076"},{"MEAN_ELEMENT_THEORY":"SGP4","NORAD_CAT_ID":"44961","REF_FRAME":"TEME","PERIAPSIS":"546.204","ARG_OF_PERICENTER":"95.4671","MEAN_ANOMALY":"264.6481","GP_ID":"223876926","RA_OF_ASC_NODE":"7.7786","LAUNCH_DATE":"2020-01-07","INCLINATION":"53.0538","OBJECT_ID":"2020-001AZ","CLASSIFICATION_TYPE":"U","APOAPSIS":"548.189","TLE_LINE1":"1 44961U 20001AZ  23028.36673634  .00004275  00000-0  30564-3 0  9999","MEAN_MOTION_DDOT":"0.0000000000000","PERIOD":"95.592","RCS_SIZE":"LARGE","TIME_SYSTEM":"UTC","SEMIMAJOR_AXIS":"6925.332","REV_AT_EPOCH":"16914","OBJECT_TYPE":"PAYLOAD","EPOCH":"2023-01-28T08:48:06.019776","OBJECT_NAME":"STARLINK-1080","CENTER_NAME":"EARTH","TLE_LINE2":"2 44961  53.0538   7.7786 0001433  95.4671 264.6481 15.06405501169147","ECCENTRICITY":"0.00014330","FILE":"3763924","EPHEMERIS_TYPE":"0","SITE":"AFETR","MEAN_MOTION_DOT":"0.00004275","ELEMENT_SET_NO":"999","COUNTRY_CODE":"US","BSTAR":"0.00030564000000","DECAY_DATE":null,"MEAN_MOTION":"15.06405501"},{"MEAN_ELEMENT_THEORY":"SGP4","NORAD_CAT_ID":"44963","PERIAPSIS":"453.775","REF_FRAME":"TEME","ARG_OF_PERICENTER":"132.1324","MEAN_ANOMALY":"228.0263","GP_ID":"223887736","RA_OF_ASC_NODE":"327.4467","LAUNCH_DATE":"2020-01-07","INCLINATION":"52.9747","OBJECT_ID":"2020-001BB","CLASSIFICATION_TYPE":"U","APOAPSIS":"463.206","TLE_LINE1":"1 44963U 20001BB  23028.85564371  .00116304  00000-0  32478-2 0  9994","MEAN_MOTION_DDOT":"0.0000000000000","PERIOD":"93.761","RCS_SIZE":"LARGE","TIME_SYSTEM":"UTC","SEMIMAJOR_AXIS":"6836.626","REV_AT_EPOCH":"17042","OBJECT_TYPE":"PAYLOAD","EPOCH":"2023-01-28T20:32:07.616544","OBJECT_NAME":"STARLINK-1085","CENTER_NAME":"EARTH","TLE_LINE2":"2 44963  52.9747 327.4467 0006897 132.1324 228.0263 15.35819085170423","ECCENTRICITY":"0.00068970","FILE":"3764101","EPHEMERIS_TYPE":"0","SITE":"AFETR","MEAN_MOTION_DOT":"0.00116304","COUNTRY_CODE":"US","ELEMENT_SET_NO":"999","BSTAR":"0.00324780000000","DECAY_DATE":null,"MEAN_MOTION":"15.35819085"},{"DECAY_DATE":null,"MEAN_MOTION":"15.06367895","ELEMENT_SET_NO":"999","COUNTRY_CODE":"US","BSTAR":"-0.00024903000000","OBJECT_NAME":"STARLINK-1086","CENTER_NAME":"EARTH","TLE_LINE2":"2 44964  53.0563   5.2554 0001851 102.3720 257.7476 15.06367895169220","REV_AT_EPOCH":"16922","OBJECT_TYPE":"PAYLOAD","EPOCH":"2023-01-28T22:14:55.015296","SITE":"AFETR","MEAN_MOTION_DOT":"-0.00003986","ECCENTRICITY":"0.00018510","EPHEMERIS_TYPE":"0","FILE":"3764201","APOAPSIS":"548.594","TLE_LINE1":"1 44964U 20001BC  23028.92702564 -.00003986  00000-0 -24903-3 0  9999","MEAN_MOTION_DDOT":"0.0000000000000","INCLINATION":"53.0563","OBJECT_ID":"2020-001BC","CLASSIFICATION_TYPE":"U","PERIOD":"95.594","RCS_SIZE":"LARGE","TIME_SYSTEM":"UTC","SEMIMAJOR_AXIS":"6925.447","MEAN_ANOMALY":"257.7476","ARG_OF_PERICENTER":"102.3720","MEAN_ELEMENT_THEORY":"SGP4","NORAD_CAT_ID":"44964","REF_FRAME":"TEME","PERIAPSIS":"546.030","LAUNCH_DATE":"2020-01-07","GP_ID":"223909470","RA_OF_ASC_NODE":"5.2554"},{"EPHEMERIS_TYPE":"0","FILE":"3763924","ECCENTRICITY":"0.00021480","MEAN_MOTION_DOT":"0.00024858","SITE":"AFETR","EPOCH":"2023-01-28T08:25:04.952064","OBJECT_TYPE":"PAYLOAD","REV_AT_EPOCH":"16913","TLE_LINE2":"2 44966  53.0530   7.8392 0002148 111.1966 248.9253 15.06845904169131","CENTER_NAME":"EARTH","OBJECT_NAME":"STARLINK-1088","BSTAR":"0.00166170000000","ELEMENT_SET_NO":"999","COUNTRY_CODE":"US","MEAN_MOTION":"15.06845904","DECAY_DATE":null,"RA_OF_ASC_NODE":"7.8392","GP_ID":"223876176","LAUNCH_DATE":"2020-01-07","PERIAPSIS":"544.360","REF_FRAME":"TEME","NORAD_CAT_ID":"44966","MEAN_ELEMENT_THEORY":"SGP4","MEAN_ANOMALY":"248.9253","ARG_OF_PERICENTER":"111.1966","SEMIMAJOR_AXIS":"6923.982","TIME_SYSTEM":"UTC","RCS_SIZE":"LARGE","PERIOD":"95.564","CLASSIFICATION_TYPE":"U","OBJECT_ID":"2020-001BE","INCLINATION":"53.0530","MEAN_MOTION_DDOT":"0.0000000000000","APOAPSIS":"547.335","TLE_LINE1":"1 44966U 20001BE  23028.35075176  .00024858  00000-0  16617-2 0  9991"},{"RA_OF_ASC_NODE":"5.3499","GP_ID":"223887624","LAUNCH_DATE":"2020-01-07","MEAN_ELEMENT_THEORY":"SGP4","PERIAPSIS":"546.096","REF_FRAME":"TEME","NORAD_CAT_ID":"44967","ARG_OF_PERICENTER":"102.5585","MEAN_ANOMALY":"257.5585","RCS_SIZE":"LARGE","PERIOD":"95.592","SEMIMAJOR_AXIS":"6925.354","TIME_SYSTEM":"UTC","INCLINATION":"53.0554","CLASSIFICATION_TYPE":"U","OBJECT_ID":"2020-001BF","TLE_LINE1":"1 44967U 20001BF  23028.90490288  .00007139  00000-0  49768-3 0  9995","APOAPSIS":"548.343","MEAN_MOTION_DDOT":"0.0000000000000","ECCENTRICITY":"0.00016220","EPHEMERIS_TYPE":"0","FILE":"3764097","MEAN_MOTION_DOT":"0.00007139","SITE":"AFETR","OBJECT_TYPE":"PAYLOAD","REV_AT_EPOCH":"16922","EPOCH":"2023-01-28T21:43:03.608832","OBJECT_NAME":"STARLINK-1089","CENTER_NAME":"EARTH","TLE_LINE2":"2 44967  53.0554   5.3499 0001622 102.5585 257.5585 15.06398092169221","ELEMENT_SET_NO":"999","COUNTRY_CODE":"US","BSTAR":"0.00049768000000","MEAN_MOTION":"15.06398092","DECAY_DATE":null},{"ECCENTRICITY":"0.00014050","EPHEMERIS_TYPE":"0","FILE":"3764097","MEAN_MOTION_DOT":"0.00012396","SITE":"AFETR","OBJECT_TYPE":"PAYLOAD","REV_AT_EPOCH":"16922","EPOCH":"2023-01-28T21:37:43.550400","OBJECT_NAME":"STARLINK-1090","TLE_LINE2":"2 44968  53.0549   5.3743 0001405  94.1494 265.9656 15.06398545169227","CENTER_NAME":"EARTH","ELEMENT_SET_NO":"999","COUNTRY_CODE":"US","BSTAR":"0.00084964000000","MEAN_MOTION":"15.06398545","DECAY_DATE":null,"RA_OF_ASC_NODE":"5.3743","GP_ID":"223887749","LAUNCH_DATE":"2020-01-07","MEAN_ELEMENT_THEORY":"SGP4","PERIAPSIS":"546.245","REF_FRAME":"TEME","NORAD_CAT_ID":"44968","ARG_OF_PERICENTER":"94.1494","MEAN_ANOMALY":"265.9656","RCS_SIZE":"LARGE","PERIOD":"95.592","SEMIMAJOR_AXIS":"6925.353","TIME_SYSTEM":"UTC","INCLINATION":"53.0549","OBJECT_ID":"2020-001BG","CLASSIFICATION_TYPE":"U","TLE_LINE1":"1 44968U 20001BG  23028.90119850  .00012396  00000-0  84964-3 0  9997","APOAPSIS":"548.191","MEAN_MOTION_DDOT":"0.0000000000000"},{"TLE_LINE1":"1 44969U 20001BH  23028.36303503  .00008732  00000-0  60390-3 0  9994","APOAPSIS":"548.240","MEAN_MOTION_DDOT":"0.0000000000000","INCLINATION":"53.0544","OBJECT_ID":"2020-001BH","CLASSIFICATION_TYPE":"U","PERIOD":"95.590","RCS_SIZE":"LARGE","TIME_SYSTEM":"UTC","SEMIMAJOR_AXIS":"6925.259","ARG_OF_PERICENTER":"100.8375","MEAN_ANOMALY":"259.2796","MEAN_ELEMENT_THEORY":"SGP4","NORAD_CAT_ID":"44969","REF_FRAME":"TEME","PERIAPSIS":"546.009","LAUNCH_DATE":"2020-01-07","GP_ID":"223876426","RA_OF_ASC_NODE":"7.7926","DECAY_DATE":null,"MEAN_MOTION":"15.06429102","COUNTRY_CODE":"US","ELEMENT_SET_NO":"999","BSTAR":"0.00060390000000","OBJECT_NAME":"STARLINK-1092","TLE_LINE2":"2 44969  53.0544   7.7926 0001611 100.8375 259.2796 15.06429102169139","CENTER_NAME":"EARTH","REV_AT_EPOCH":"16913","OBJECT_TYPE":"PAYLOAD","EPOCH":"2023-01-28T08:42:46.226592","SITE":"AFETR","MEAN_MOTION_DOT":"0.00008732","ECCENTRICITY":"0.00016110","FILE":"3763924","EPHEMERIS_TYPE":"0"},{"BSTAR":"0.00019264000000","ELEMENT_SET_NO":"999","COUNTRY_CODE":"US","DECAY_DATE":null,"MEAN_MOTION":"15.06399313","FILE":"3763924","EPHEMERIS_TYPE":"0","ECCENTRICITY":"0.00015020","SITE":"AFETR","MEAN_MOTION_DOT":"0.00002589","EPOCH":"2023-01-28T08:10:57.043200","REV_AT_EPOCH":"16912","OBJECT_TYPE":"PAYLOAD","TLE_LINE2":"2 44970  53.0563   7.8825 0001502 107.2959 252.8194 15.06399313169129","CENTER_NAME":"EARTH","OBJECT_NAME":"STARLINK-1093","TIME_SYSTEM":"UTC","SEMIMAJOR_AXIS":"6925.351","PERIOD":"95.592","RCS_SIZE":"LARGE","CLASSIFICATION_TYPE":"U","OBJECT_ID":"2020-001BJ","INCLINATION":"53.0563","MEAN_MOTION_DDOT":"0.0000000000000","TLE_LINE1":"1 44970U 20001BJ  23028.34093800  .00002589  00000-0  19264-3 0  9998","APOAPSIS":"548.256","GP_ID":"223876676","RA_OF_ASC_NODE":"7.8825","LAUNCH_DATE":"2020-01-07","NORAD_CAT_ID":"44970","REF_FRAME":"TEME","PERIAPSIS":"546.175","MEAN_ELEMENT_THEORY":"SGP4","ARG_OF_PERICENTER":"107.2959","MEAN_ANOMALY":"252.8194"}];
